; Generated by TTC 3018 Text Engraver
; Text height 10 mm, depth -0.3 mm, font Rounded
G21
G17
G90
G94
M3 S2000
G0 Z3
G0 X5.89 Y8.5
G1 Z-0.3 F100
G1 X4.8057 Y9.6405 F300
G1 X4.6252 Y9.7978 F300
G1 X4.4254 Y9.9101 F300
G1 X4.2064 Y9.9775 F300
G1 X3.968 Y10 F300
G1 X2.046 Y10 F300
G1 X1.8127 Y9.9737 F300
G1 X1.6087 Y9.8946 F300
G1 X1.434 Y9.7629 F300
G1 X1.2886 Y9.5784 F300
G1 X0.2614 Y7.9216 F300
G1 X0.147 Y7.7061 F300
G1 X0.0653 Y7.4814 F300
G1 X0.0163 Y7.2473 F300
G1 X0 Y7.004 F300
G1 X0 Y2.996 F300
G1 X0.0163 Y2.7527 F300
G1 X0.0653 Y2.5186 F300
G1 X0.147 Y2.2939 F300
G1 X0.2614 Y2.0784 F300
G1 X1.2886 Y0.4216 F300
G1 X1.434 Y0.2371 F300
G1 X1.6087 Y0.1054 F300
G1 X1.8127 Y0.0263 F300
G1 X2.046 Y0 F300
G1 X3.968 Y0 F300
G1 X4.2064 Y0.0225 F300
G1 X4.4254 Y0.0899 F300
G1 X4.6252 Y0.2022 F300
G1 X4.8057 Y0.3595 F300
G1 X5.89 Y1.5 F300
G0 Z3
G0 X8.2 Y0
G1 Z-0.3 F100
G1 X8.2 Y10 F300
G0 Z3
G0 X14.4 Y0
G1 Z-0.3 F100
G1 X14.4 Y10 F300
G0 Z3
G0 X8.2 Y5
G1 Z-0.3 F100
G1 X14.4 Y5 F300
G0 Z3
G0 X22.29 Y10
G1 Z-0.3 F100
G1 X16.896 Y10 F300
G1 X16.679 Y9.969 F300
G1 X16.524 Y9.876 F300
G1 X16.431 Y9.721 F300
G1 X16.4 Y9.504 F300
G1 X16.4 Y0.496 F300
G1 X16.431 Y0.279 F300
G1 X16.524 Y0.124 F300
G1 X16.679 Y0.031 F300
G1 X16.896 Y0 F300
G1 X22.29 Y0 F300
G0 Z3
G0 X16.4 Y5
G1 Z-0.3 F100
G1 X20.864 Y5 F300
G0 Z3
G0 X30.49 Y8.2
G1 Z-0.3 F100
G1 X29.372 Y9.6112 F300
G1 X29.2063 Y9.7813 F300
G1 X29.017 Y9.9028 F300
G1 X28.8043 Y9.9757 F300
G1 X28.568 Y10 F300
G1 X26.646 Y10 F300
G1 X26.411 Y9.9748 F300
G1 X26.202 Y9.899 F300
G1 X26.019 Y9.7728 F300
G1 X25.862 Y9.5961 F300
G1 X25.012 Y8.4039 F300
G1 X24.886 Y8.1962 F300
G1 X24.796 Y7.977 F300
G1 X24.742 Y7.7462 F300
G1 X24.724 Y7.504 F300
G1 X24.724 Y6.696 F300
G1 X24.7477 Y6.459 F300
G1 X24.8189 Y6.2442 F300
G1 X24.9375 Y6.0514 F300
G1 X25.1035 Y5.8806 F300
G1 X25.7705 Y5.3194 F300
G1 X25.9675 Y5.1796 F300
G1 X26.1791 Y5.0798 F300
G1 X26.4053 Y5.02 F300
G1 X26.646 Y5 F300
G1 X28.568 Y5 F300
G1 X28.8064 Y4.9775 F300
G1 X29.0254 Y4.9101 F300
G1 X29.2252 Y4.7978 F300
G1 X29.4057 Y4.6405 F300
G1 X30.1483 Y3.8595 F300
G1 X30.2978 Y3.6712 F300
G1 X30.4046 Y3.4659 F300
G1 X30.4686 Y3.2435 F300
G1 X30.49 Y3.004 F300
G1 X30.49 Y2.296 F300
G1 X30.4707 Y2.0547 F300
G1 X30.413 Y1.8268 F300
G1 X30.3167 Y1.6123 F300
G1 X30.182 Y1.4112 F300
G1 X29.372 Y0.3888 F300
G1 X29.2063 Y0.2187 F300
G1 X29.017 Y0.0972 F300
G1 X28.8043 Y0.0243 F300
G1 X28.568 Y0 F300
G1 X26.646 Y0 F300
G1 X26.4097 Y0.0243 F300
G1 X26.197 Y0.0972 F300
G1 X26.0077 Y0.2187 F300
G1 X25.842 Y0.3888 F300
G1 X24.724 Y1.8 F300
G0 Z3
G0 X32.8 Y10
G1 Z-0.3 F100
G1 X39 Y10 F300
G0 Z3
G0 X35.9 Y10
G1 Z-0.3 F100
G1 X35.9 Y0 F300
G0 Z3
G0 X46.89 Y10
G1 Z-0.3 F100
G1 X41.496 Y10 F300
G1 X41.279 Y9.969 F300
G1 X41.124 Y9.876 F300
G1 X41.031 Y9.721 F300
G1 X41 Y9.504 F300
G1 X41 Y0.496 F300
G1 X41.031 Y0.279 F300
G1 X41.124 Y0.124 F300
G1 X41.279 Y0.031 F300
G1 X41.496 Y0 F300
G1 X46.89 Y0 F300
G0 Z3
G0 X41 Y5
G1 Z-0.3 F100
G1 X45.464 Y5 F300
G0 Z3
G0 X49.2 Y0
G1 Z-0.3 F100
G1 X49.2 Y9.504 F300
G1 X49.231 Y9.721 F300
G1 X49.324 Y9.876 F300
G1 X49.479 Y9.969 F300
G1 X49.696 Y10 F300
G1 X52.734 Y10 F300
G1 X52.9721 Y9.9773 F300
G1 X53.1904 Y9.9092 F300
G1 X53.389 Y9.7957 F300
G1 X53.5678 Y9.6368 F300
G1 X54.7522 Y8.3632 F300
G1 X54.9 Y8.1733 F300
G1 X55.0056 Y7.9668 F300
G1 X55.0689 Y7.7437 F300
G1 X55.09 Y7.504 F300
G1 X55.09 Y6.696 F300
G1 X55.064 Y6.4622 F300
G1 X54.9858 Y6.2568 F300
G1 X54.8556 Y6.0797 F300
G1 X54.6732 Y5.9311 F300
G1 X53.6468 Y5.2689 F300
G1 X53.4334 Y5.1513 F300
G1 X53.2102 Y5.0672 F300
G1 X52.977 Y5.0168 F300
G1 X52.734 Y5 F300
G1 X49.2 Y5 F300
G0 Z3
G0 X52.424 Y5
G1 Z-0.3 F100
G1 X55.4 Y0 F300
G0 Z3
G0 Z3
G0 X0 Y0
M5
M2
